{ "data": [{ "slug": "acura", "name": "Acura", "name_en": "Acura", "regions": ["cdm", "chdm", "eudm", "medm", "mxndm", "russia", "usdm"], "logo": "https://cdn.wheel-size.com/automobile/manufacturer/acura-1622187471.8597765.png" }, { "slug": "aion", "name": "Aion", "name_en": "Aion", "regions": ["chdm"], "logo": "https://cdn.wheel-size.com/automobile/manufacturer/aion-1698168010.4412608.png" }, { "slug": "aiways", "name": "Aiways", "name_en": "Aiways", "regions": ["chdm", "eudm"], "logo": "https://cdn.wheel-size.com/automobile/manufacturer/aiways-1622278588.6673965.png" }, { "slug": "aixam", "name": "Aixam", "name_en": "Aixam", "regions": ["eudm"], "logo": "https://cdn.wheel-size.com/automobile/manufacturer/aixam-1663181239.9043002.png" }, { "slug": "alfa-romeo", "name": "Alfa Romeo", "name_en": "Alfa Romeo", "regions": ["audm", "cdm", "chdm", "eudm", "jdm", "ladm", "medm", "mxndm", "nadm", "russia", "sadm", "sam", "usdm"], "logo": "https://cdn.wheel-size.com/automobile/manufacturer/alfa-romeo-1622187497.0561097.png" }, { "slug": "alpine", "name": "Alpine", "name_en": "Alpine", "regions": ["eudm", "jdm", "usdm"], "logo": "https://cdn.wheel-size.com/automobile/manufacturer/alpine-1622187509.1047068.png" }, { "slug": "arcfox", "name": "Arcfox", "name_en": "Arcfox", "regions": ["chdm"], "logo": "https://cdn.wheel-size.com/automobile/manufacturer/arcfox-1663181449.8473866.png" }, { "slug": "aro", "name": "ARO", "name_en": "ARO", "regions": ["eudm"], "logo": "https://cdn.wheel-size.com/automobile/manufacturer/aro-1622187538.0291052.png" }, { "slug": "aston-martin", "name": "Aston Martin", "name_en": "Aston Martin", "regions": ["audm", "cdm", "chdm", "eudm", "jdm", "ladm", "medm", "mxndm", "nadm", "russia", "sadm", "sam", "skdm", "usdm"], "logo": "https://cdn.wheel-size.com/automobile/manufacturer/aston-martin-1622187548.7074096.png" }, { "slug": "audi", "name": "Audi", "name_en": "Audi", "regions": ["audm", "cdm", "chdm", "eudm", "jdm", "ladm", "medm", "mxndm", "nadm", "russia", "sadm", "sam", "skdm", "usdm"], "logo": "https://cdn.wheel-size.com/automobile/manufacturer/audi-1632743135.9018078.png" }, { "slug": "avatr", "name": "Avatr", "name_en": "Avatr", "regions": ["chdm"], "logo": "https://cdn.wheel-size.com/automobile/manufacturer/avatr-1698155147.58932.png" }, { "slug": "baic", "name": "BAIC", "name_en": "BAIC", "regions": ["chdm", "eudm", "ladm", "medm", "mxndm", "nadm", "russia", "sadm", "sam"], "logo": "https://cdn.wheel-size.com/automobile/manufacturer/baic-1622187569.0411181.png" }, { "slug": "baojun", "name": "Baojun", "name_en": "Baojun", "regions": ["chdm", "ladm", "medm"], "logo": "https://cdn.wheel-size.com/automobile/manufacturer/baojun-1622187683.3702807.png" }, { "slug": "baw", "name": "BAW", "name_en": "BAW", "regions": ["chdm"], "logo": "https://cdn.wheel-size.com/automobile/manufacturer/baw-1622187690.2120898.png" }, { "slug": "bentley", "name": "Bentley", "name_en": "Bentley", "regions": ["audm", "cdm", "chdm", "eudm", "ladm", "medm", "mxndm", "nadm", "russia", "sadm", "sam", "skdm", "usdm"], "logo": "https://cdn.wheel-size.com/automobile/manufacturer/bentley-1622187696.6171503.png" }, { "slug": "bjev", "name": "BAIC BJEV", "name_en": "BAIC BJEV", "regions": ["chdm"], "logo": "https://cdn.wheel-size.com/automobile/manufacturer/bjev-1622187603.0095983.png" }, { "slug": "bmw", "name": "BMW", "name_en": "BMW", "regions": ["audm", "cdm", "chdm", "eudm", "jdm", "ladm", "medm", "mxndm", "nadm", "russia", "sadm", "sam", "skdm", "usdm"], "logo": "https://cdn.wheel-size.com/automobile/manufacturer/bmw-1632742904.5706592.png" }, { "slug": "bmw-alpina", "name": "BMW Alpina", "name_en": "BMW Alpina", "regions": ["audm", "cdm", "chdm", "eudm", "jdm", "medm", "russia", "usdm"], "logo": "https://cdn.wheel-size.com/automobile/manufacturer/bmw-alpina-1622187718.9726026.png" }, { "slug": "borgward", "name": "Borgward", "name_en": "Borgward", "regions": ["chdm", "eudm", "medm"], "logo": "https://cdn.wheel-size.com/automobile/manufacturer/borgward-1622187806.0145419.png" }, { "slug": "brilliance", "name": "Brilliance", "name_en": "Brilliance", "regions": ["chdm", "eudm", "ladm", "medm", "nadm", "russia", "sam"], "logo": "https://cdn.wheel-size.com/automobile/manufacturer/brilliance-1622187813.378159.png" }, { "slug": "bugatti", "name": "Bugatti", "name_en": "Bugatti", "regions": ["cdm", "chdm", "eudm", "jdm", "medm", "usdm"], "logo": "https://cdn.wheel-size.com/automobile/manufacturer/bugatti-1622187836.8095803.png" }, { "slug": "buick", "name": "Buick", "name_en": "Buick", "regions": ["cdm", "chdm", "mxndm", "usdm"], "logo": "https://cdn.wheel-size.com/automobile/manufacturer/buick-1622187846.1971812.png" }, { "slug": "byd", "name": "BYD", "name_en": "BYD", "regions": ["audm", "chdm", "eudm", "jdm", "ladm", "medm", "mxndm", "nadm", "russia", "sadm", "sam", "skdm", "usdm"], "logo": "https://cdn.wheel-size.com/automobile/manufacturer/byd-1622188366.9093466.png" }, { "slug": "cadillac", "name": "Cadillac", "name_en": "Cadillac", "regions": ["cdm", "chdm", "eudm", "medm", "mxndm", "russia", "usdm"], "logo": "https://cdn.wheel-size.com/automobile/manufacturer/cadillac-1622187853.7133439.png" }, { "slug": "casalini", "name": "Casalini", "name_en": "Casalini", "regions": ["eudm"], "logo": "https://cdn.wheel-size.com/automobile/manufacturer/casalini-1663215785.0301745.png" }, { "slug": "changan", "name": "Changan", "name_en": "Changan", "regions": ["chdm", "ladm", "medm", "nadm", "russia", "sadm", "sam"], "logo": "https://cdn.wheel-size.com/automobile/manufacturer/changan-1622187860.82198.png" }, { "slug": "changan-qiyuan", "name": "Changan Qiyuan", "name_en": "Changan Qiyuan", "regions": ["chdm"], "logo": null }, { "slug": "changhe", "name": "Changhe", "name_en": "Changhe", "regions": ["chdm", "sam"], "logo": "https://cdn.wheel-size.com/automobile/manufacturer/changhe-1622187867.9899735.png" }, { "slug": "chery", "name": "Chery", "name_en": "Chery", "regions": ["audm", "chdm", "eudm", "ladm", "medm", "mxndm", "nadm", "russia", "sadm", "sam"], "logo": "https://cdn.wheel-size.com/automobile/manufacturer/chery-1622187875.123182.png" }, { "slug": "cheryexeed", "name": "CheryExeed", "name_en": "CheryExeed", "regions": ["russia"], "logo": "https://cdn.wheel-size.com/automobile/manufacturer/cheryexeed-1622278985.9032881.png" }, { "slug": "chevrolet", "name": "Chevrolet", "name_en": "Chevrolet", "regions": ["cdm", "chdm", "eudm", "jdm", "ladm", "medm", "mxndm", "nadm", "russia", "sadm", "sam", "skdm", "usdm"], "logo": "https://cdn.wheel-size.com/automobile/manufacturer/chevrolet-1622187909.3255498.png" }, { "slug": "chirey", "name": "Chirey", "name_en": "Chirey", "regions": ["mxndm"], "logo": null }, { "slug": "chrysler", "name": "Chrysler", "name_en": "Chrysler", "regions": ["cdm", "eudm", "medm", "mxndm", "russia", "usdm"], "logo": "https://cdn.wheel-size.com/automobile/manufacturer/chrysler-1622187918.8890374.png" }, { "slug": "ciimo", "name": "Ciimo", "name_en": "Ciimo", "regions": ["chdm"], "logo": "https://cdn.wheel-size.com/automobile/manufacturer/ciimo-1622187933.7746232.png" }, { "slug": "citroen", "name": "Citroën", "name_en": "Citroën", "regions": ["audm", "chdm", "eudm", "jdm", "ladm", "medm", "russia", "sadm", "sam"], "logo": "https://cdn.wheel-size.com/automobile/manufacturer/citroen-1698158436.5804582.png" }, { "slug": "cupra", "name": "Cupra", "name_en": "Cupra", "regions": ["audm", "eudm", "medm", "mxndm", "sam"], "logo": "https://cdn.wheel-size.com/automobile/manufacturer/cupra-1622188035.655218.png" }, { "slug": "dacia", "name": "Dacia", "name_en": "Dacia", "regions": ["eudm", "ladm", "mxndm"], "logo": "https://cdn.wheel-size.com/automobile/manufacturer/dacia-1698237142.6867957.png" }, { "slug": "daewoo", "name": "Daewoo", "name_en": "Daewoo", "regions": ["cdm", "eudm", "mxndm", "russia", "sam", "skdm", "usdm"], "logo": "https://cdn.wheel-size.com/automobile/manufacturer/daewoo-1622188056.615045.png" }, { "slug": "daihatsu", "name": "Daihatsu", "name_en": "Daihatsu", "regions": ["audm", "cdm", "eudm", "jdm", "ladm", "medm", "sam", "usdm"], "logo": "https://cdn.wheel-size.com/automobile/manufacturer/daihatsu-1622188066.036895.png" }, { "slug": "datsun", "name": "Datsun", "name_en": "Datsun", "regions": ["audm", "eudm", "russia", "sadm", "sam", "usdm"], "logo": "https://cdn.wheel-size.com/automobile/manufacturer/datsun-1622188074.3245099.png" }, { "slug": "denza", "name": "Denza", "name_en": "Denza", "regions": ["chdm"], "logo": "https://cdn.wheel-size.com/automobile/manufacturer/denza-1622188082.516713.png" }, { "slug": "dodge", "name": "Dodge", "name_en": "Dodge", "regions": ["cdm", "chdm", "eudm", "jdm", "ladm", "medm", "mxndm", "russia", "sam", "usdm"], "logo": "https://cdn.wheel-size.com/automobile/manufacturer/dodge-1663218424.6866808.png" }, { "slug": "dongfeng", "name": "Dongfeng", "name_en": "Dongfeng", "regions": ["chdm", "eudm", "medm", "russia", "sam"], "logo": "https://cdn.wheel-size.com/automobile/manufacturer/dongfeng-1622188104.2587373.png" }, { "slug": "dorcen", "name": "Dorcen", "name_en": "Dorcen", "regions": ["chdm", "medm"], "logo": "https://cdn.wheel-size.com/automobile/manufacturer/dorcen-1698155215.3159215.png" }, { "slug": "dr", "name": "DR", "name_en": "DR", "regions": ["eudm"], "logo": "https://cdn.wheel-size.com/automobile/manufacturer/dr-1622188111.7814467.png" }, { "slug": "ds", "name": "DS", "name_en": "DS", "regions": ["chdm", "eudm", "jdm", "ladm", "medm", "nadm", "russia", "sam", "skdm"], "logo": "https://cdn.wheel-size.com/automobile/manufacturer/ds-1622188121.3844934.png" }, { "slug": "e-go", "name": "e.GO", "name_en": "e.GO", "regions": ["eudm"], "logo": "https://cdn.wheel-size.com/automobile/manufacturer/e-go-1663217213.60509.png" }, { "slug": "eagle", "name": "Eagle", "name_en": "Eagle", "regions": ["usdm"], "logo": "https://cdn.wheel-size.com/automobile/manufacturer/eagle-1622188132.0263343.png" }, { "slug": "elaris", "name": "Elaris", "name_en": "Elaris", "regions": ["eudm"], "logo": "https://cdn.wheel-size.com/automobile/manufacturer/elaris-1663182633.462746.png" }, { "slug": "enovate", "name": "Enovate", "name_en": "Enovate", "regions": ["chdm"], "logo": "https://cdn.wheel-size.com/automobile/manufacturer/enovate-1622188258.5209954.png" }, { "slug": "enranger", "name": "Enranger", "name_en": "Enranger", "regions": ["chdm", "ladm"], "logo": "https://cdn.wheel-size.com/automobile/manufacturer/enranger-1622188275.0236676.png" }, { "slug": "everus", "name": "Everus", "name_en": "Everus", "regions": ["chdm"], "logo": "https://cdn.wheel-size.com/automobile/manufacturer/everus-1622188293.1805074.png" }, { "slug": "evolute", "name": "Evolute", "name_en": "Evolute", "regions": ["russia"], "logo": "https://cdn.wheel-size.com/automobile/manufacturer/evolute-1698155244.0694633.png" }, { "slug": "exeed", "name": "Exeed", "name_en": "Exeed", "regions": ["chdm", "ladm", "medm", "russia"], "logo": "https://cdn.wheel-size.com/automobile/manufacturer/exeed-1622188307.4593158.png" }, { "slug": "faw", "name": "FAW", "name_en": "FAW", "regions": ["chdm", "eudm", "medm", "russia"], "logo": "https://cdn.wheel-size.com/automobile/manufacturer/faw-1622188327.5026684.png" }, { "slug": "faw-audi", "name": "FAW Audi", "name_en": "FAW Audi", "regions": ["chdm"], "logo": "https://cdn.wheel-size.com/automobile/manufacturer/faw-audi-1622188402.9661357.png" }, { "slug": "faw-mazda", "name": "FAW Mazda", "name_en": "FAW Mazda", "regions": ["chdm"], "logo": "https://cdn.wheel-size.com/automobile/manufacturer/faw-mazda-1622188413.2037818.png" }, { "slug": "faw-toyota", "name": "FAW Toyota", "name_en": "FAW Toyota", "regions": ["chdm"], "logo": "https://cdn.wheel-size.com/automobile/manufacturer/faw-toyota-1622188422.0930429.png" }, { "slug": "faw-volkswagen", "name": "FAW Volkswagen", "name_en": "FAW Volkswagen", "regions": ["chdm"], "logo": "https://cdn.wheel-size.com/automobile/manufacturer/faw-volkswagen-1622188430.9719195.png" }, { "slug": "ferrari", "name": "Ferrari", "name_en": "Ferrari", "regions": ["audm", "cdm", "chdm", "eudm", "jdm", "ladm", "medm", "mxndm", "nadm", "russia", "sadm", "sam", "skdm", "usdm"], "logo": "https://cdn.wheel-size.com/automobile/manufacturer/ferrari-1622188446.4694815.png" }, { "slug": "fiat", "name": "Fiat", "name_en": "Fiat", "regions": ["audm", "cdm", "chdm", "eudm", "jdm", "ladm", "medm", "mxndm", "nadm", "russia", "sadm", "sam", "usdm"], "logo": "https://cdn.wheel-size.com/automobile/manufacturer/fiat-1698158266.346683.png" }, { "slug": "fisker", "name": "Fisker", "name_en": "Fisker", "regions": ["eudm", "medm", "usdm"], "logo": "https://cdn.wheel-size.com/automobile/manufacturer/fisker-1622188588.6863039.png" }, { "slug": "foday", "name": "Foday", "name_en": "Foday", "regions": ["chdm"], "logo": "https://cdn.wheel-size.com/automobile/manufacturer/foday-1622188598.3548558.png" }, { "slug": "force", "name": "Force", "name_en": "Force", "regions": ["sam"], "logo": "https://cdn.wheel-size.com/automobile/manufacturer/force-1622188609.5510275.png" }, { "slug": "ford", "name": "Ford", "name_en": "Ford", "regions": ["audm", "cdm", "chdm", "eudm", "jdm", "ladm", "medm", "mxndm", "nadm", "russia", "sadm", "sam", "usdm"], "logo": "https://cdn.wheel-size.com/automobile/manufacturer/ford-1622188633.2006207.png" }, { "slug": "foton", "name": "Foton", "name_en": "Foton", "regions": ["audm", "chdm", "medm", "russia", "sam"], "logo": "https://cdn.wheel-size.com/automobile/manufacturer/foton-1622188650.8366506.png" }, { "slug": "gac", "name": "GAC", "name_en": "GAC", "regions": ["chdm", "ladm", "medm", "mxndm", "nadm", "russia", "sam"], "logo": "https://cdn.wheel-size.com/automobile/manufacturer/gac-1663217552.1997182.png" }, { "slug": "gac-fiat", "name": "GAC Fiat", "name_en": "GAC Fiat", "regions": ["chdm"], "logo": "https://cdn.wheel-size.com/automobile/manufacturer/gac-fiat-1663217570.1571248.png" }, { "slug": "gac-honda", "name": "GAC Honda", "name_en": "GAC Honda", "regions": ["chdm"], "logo": "https://cdn.wheel-size.com/automobile/manufacturer/gac-honda-1663217614.489852.png" }, { "slug": "gac-toyota", "name": "GAC Toyota", "name_en": "GAC Toyota", "regions": ["chdm"], "logo": "https://cdn.wheel-size.com/automobile/manufacturer/gac-toyota-1663217628.9986913.png" }, { "slug": "gaz", "name": "GAZ", "name_en": "GAZ", "regions": ["eudm", "ladm", "nadm", "russia", "sam"], "logo": "https://cdn.wheel-size.com/automobile/manufacturer/gaz-1622188710.9964626.png" }, { "slug": "geely", "name": "Geely", "name_en": "Geely", "regions": ["chdm", "eudm", "ladm", "medm", "nadm", "russia", "sadm", "sam"], "logo": "https://cdn.wheel-size.com/automobile/manufacturer/geely-1622188745.4011102.png" }, { "slug": "genesis", "name": "Genesis", "name_en": "Genesis", "regions": ["audm", "cdm", "eudm", "medm", "russia", "skdm", "usdm"], "logo": "https://cdn.wheel-size.com/automobile/manufacturer/genesis-1622188756.2003286.png" }, { "slug": "geo", "name": "GEO", "name_en": "GEO", "regions": ["usdm"], "logo": "https://cdn.wheel-size.com/automobile/manufacturer/geo-1622188767.3512769.png" }, { "slug": "geometry", "name": "Geometry", "name_en": "Geometry", "regions": ["chdm", "eudm", "ladm", "medm", "nadm", "russia"], "logo": "https://cdn.wheel-size.com/automobile/manufacturer/geometry-1663181067.9719439.png" }, { "slug": "gmc", "name": "GMC", "name_en": "GMC", "regions": ["cdm", "medm", "mxndm", "sam", "usdm"], "logo": "https://cdn.wheel-size.com/automobile/manufacturer/gmc-1663218719.169733.png" }, { "slug": "great-wall", "name": "Great Wall (GWM)", "name_en": "Great Wall (GWM)", "regions": ["audm", "chdm", "eudm", "ladm", "medm", "russia", "sadm", "sam"], "logo": "https://cdn.wheel-size.com/automobile/manufacturer/great-wall-1622195923.3004434.png" }, { "slug": "haima", "name": "Haima", "name_en": "Haima", "regions": ["chdm", "nadm", "russia", "sam"], "logo": "https://cdn.wheel-size.com/automobile/manufacturer/haima-1622195934.7114325.png" }, { "slug": "haval", "name": "Haval", "name_en": "Haval", "regions": ["audm", "chdm", "eudm", "medm", "russia", "sadm", "sam"], "logo": "https://cdn.wheel-size.com/automobile/manufacturer/haval-1622195944.8729687.png" }, { "slug": "hawtai", "name": "Hawtai", "name_en": "Hawtai", "regions": ["chdm", "russia"], "logo": "https://cdn.wheel-size.com/automobile/manufacturer/hawtai-1622195956.78074.png" }, { "slug": "hindustan", "name": "Hindustan", "name_en": "Hindustan", "regions": ["sam"], "logo": "https://cdn.wheel-size.com/automobile/manufacturer/hindustan-1622195969.6762147.png" }, { "slug": "hiphi", "name": "HiPhi", "name_en": "HiPhi", "regions": ["chdm"], "logo": "https://cdn.wheel-size.com/automobile/manufacturer/hiphi-1698155299.1074448.png" }, { "slug": "holden", "name": "Holden", "name_en": "Holden", "regions": ["audm"], "logo": "https://cdn.wheel-size.com/automobile/manufacturer/holden-1622195980.0994718.png" }, { "slug": "honda", "name": "Honda", "name_en": "Honda", "regions": ["audm", "cdm", "chdm", "eudm", "jdm", "ladm", "medm", "mxndm", "nadm", "russia", "sadm", "sam", "skdm", "usdm"], "logo": "https://cdn.wheel-size.com/automobile/manufacturer/honda-1622195990.98031.png" }, { "slug": "hongqi", "name": "Hongqi", "name_en": "Hongqi", "regions": ["chdm", "eudm", "medm", "russia", "sam"], "logo": "https://cdn.wheel-size.com/automobile/manufacturer/red-flag-1622277586.8778138.png" }, { "slug": "huanghai", "name": "Huanghai", "name_en": "Huanghai", "regions": ["chdm", "ladm"], "logo": "https://cdn.wheel-size.com/automobile/manufacturer/huanghai-1622196005.0993717.png" }, { "slug": "huansu", "name": "Huansu", "name_en": "Huansu", "regions": ["chdm"], "logo": "https://cdn.wheel-size.com/automobile/manufacturer/huansu-1622196019.6978045.png" }, { "slug": "huasong", "name": "Huasong", "name_en": "Huasong", "regions": ["chdm"], "logo": "https://cdn.wheel-size.com/automobile/manufacturer/huasong-1622196030.643733.png" }, { "slug": "hummer", "name": "Hummer", "name_en": "Hummer", "regions": ["cdm", "eudm", "medm", "mxndm", "russia", "usdm"], "logo": "https://cdn.wheel-size.com/automobile/manufacturer/hummer-1622196040.9744117.png" }, { "slug": "hycan", "name": "Hycan", "name_en": "Hycan", "regions": ["chdm"], "logo": "https://cdn.wheel-size.com/automobile/manufacturer/hycan-1663180752.0130522.png" }, { "slug": "hyundai", "name": "Hyundai", "name_en": "Hyundai", "regions": ["audm", "cdm", "chdm", "eudm", "jdm", "ladm", "medm", "mxndm", "nadm", "russia", "sadm", "sam", "skdm", "usdm"], "logo": "https://cdn.wheel-size.com/automobile/manufacturer/hyundai-1622196052.2252924.png" }, { "slug": "im", "name": "IM", "name_en": "IM", "regions": ["chdm"], "logo": "https://cdn.wheel-size.com/automobile/manufacturer/im-1698155327.343428.png" }, { "slug": "ineos", "name": "Ineos", "name_en": "Ineos", "regions": ["audm", "cdm", "eudm", "medm", "mxndm", "nadm", "sadm", "usdm"], "logo": "https://cdn.wheel-size.com/automobile/manufacturer/ineos-1698155334.1132197.png" }, { "slug": "infiniti", "name": "Infiniti", "name_en": "Infiniti", "regions": ["cdm", "chdm", "eudm", "ladm", "medm", "mxndm", "russia", "sam", "usdm"], "logo": "https://cdn.wheel-size.com/automobile/manufacturer/infiniti-1622196684.0447907.png" }, { "slug": "iran-khodro", "name": "Iran Khodro", "name_en": "Iran Khodro", "regions": ["eudm", "medm", "russia", "sam"], "logo": "https://cdn.wheel-size.com/automobile/manufacturer/iran-khodro-1698155345.14644.png" }, { "slug": "isuzu", "name": "Isuzu", "name_en": "Isuzu", "regions": ["audm", "cdm", "chdm", "eudm", "jdm", "ladm", "medm", "mxndm", "russia", "sadm", "sam", "skdm", "usdm"], "logo": "https://cdn.wheel-size.com/automobile/manufacturer/isuzu-1622196799.599329.png" }, { "slug": "iveco", "name": "Iveco", "name_en": "Iveco", "regions": ["eudm", "ladm", "russia"], "logo": "https://cdn.wheel-size.com/automobile/manufacturer/iveco-1622196845.7171133.png" }, { "slug": "jac", "name": "JAC", "name_en": "JAC", "regions": ["chdm", "eudm", "ladm", "medm", "mxndm", "russia", "sadm", "sam"], "logo": "https://cdn.wheel-size.com/automobile/manufacturer/jac-1622196857.5347533.png" }, { "slug": "jaecoo", "name": "Jaecoo", "name_en": "Jaecoo", "regions": ["russia"], "logo": "https://cdn.wheel-size.com/automobile/manufacturer/jaecoo-1698155378.2273355.png" }, { "slug": "jaguar", "name": "Jaguar", "name_en": "Jaguar", "regions": ["audm", "cdm", "chdm", "eudm", "jdm", "ladm", "medm", "mxndm", "nadm", "russia", "sadm", "sam", "skdm", "usdm"], "logo": "https://cdn.wheel-size.com/automobile/manufacturer/jaguar-1622196873.7070992.png" }, { "slug": "jeep", "name": "Jeep", "name_en": "Jeep", "regions": ["audm", "cdm", "chdm", "eudm", "jdm", "ladm", "medm", "mxndm", "nadm", "russia", "sadm", "sam", "skdm", "usdm"], "logo": "https://cdn.wheel-size.com/automobile/manufacturer/jeep-1622196898.1454594.png" }, { "slug": "jetour", "name": "Jetour", "name_en": "Jetour", "regions": ["chdm", "eudm", "ladm", "medm", "mxndm", "russia", "sadm", "sam"], "logo": "https://cdn.wheel-size.com/automobile/manufacturer/jetour-1632734275.7699246.png" }, { "slug": "jetta", "name": "Jetta", "name_en": "Jetta", "regions": ["chdm"], "logo": "https://cdn.wheel-size.com/automobile/manufacturer/jetta-1622196925.6330872.png" }, { "slug": "jinbei", "name": "Jinbei", "name_en": "Jinbei", "regions": ["chdm", "ladm"], "logo": "https://cdn.wheel-size.com/automobile/manufacturer/jinbei-1622196948.9165998.png" }, { "slug": "jmc", "name": "JMC", "name_en": "JMC", "regions": ["chdm", "ladm", "mxndm", "nadm", "sadm", "sam"], "logo": "https://cdn.wheel-size.com/automobile/manufacturer/jmc-1622196953.5115108.png" }, { "slug": "kaiyi", "name": "Kaiyi", "name_en": "Kaiyi", "regions": ["chdm", "russia"], "logo": "https://cdn.wheel-size.com/automobile/manufacturer/kaiyi-1698155447.3465137.png" }, { "slug": "karry", "name": "Karry", "name_en": "Karry", "regions": ["chdm", "ladm", "nadm"], "logo": "https://cdn.wheel-size.com/automobile/manufacturer/karry-1622196964.4902935.png" }, { "slug": "keyton", "name": "Keyton", "name_en": "Keyton", "regions": ["chdm", "ladm"], "logo": "https://cdn.wheel-size.com/automobile/manufacturer/keyton-1622196975.8806446.png" }, { "slug": "kia", "name": "Kia", "name_en": "Kia", "regions": ["audm", "cdm", "chdm", "eudm", "ladm", "medm", "mxndm", "nadm", "russia", "sadm", "sam", "skdm", "usdm"], "logo": "https://cdn.wheel-size.com/automobile/manufacturer/kia-1649661517.5593028.png" }, { "slug": "kinglong", "name": "King Long", "name_en": "King Long", "regions": ["chdm", "ladm", "mxndm", "sadm", "sam"], "logo": "https://cdn.wheel-size.com/automobile/manufacturer/kinglong-1622197000.80199.png" }, { "slug": "lada", "name": "LADA", "name_en": "LADA", "regions": ["eudm", "russia"], "logo": "https://cdn.wheel-size.com/automobile/manufacturer/lada-1622197012.34005.png" }, { "slug": "lamborghini", "name": "Lamborghini", "name_en": "Lamborghini", "regions": ["audm", "cdm", "chdm", "eudm", "jdm", "ladm", "medm", "mxndm", "nadm", "russia", "sadm", "sam", "skdm", "usdm"], "logo": "https://cdn.wheel-size.com/automobile/manufacturer/lamborghini-1622197030.3850188.png" }, { "slug": "lancia", "name": "Lancia", "name_en": "Lancia", "regions": ["cdm", "eudm", "usdm"], "logo": "https://cdn.wheel-size.com/automobile/manufacturer/lancia-1622197045.5213013.png" }, { "slug": "land-rover", "name": "Land Rover", "name_en": "Land Rover", "regions": ["audm", "cdm", "chdm", "eudm", "jdm", "ladm", "medm", "mxndm", "nadm", "russia", "sadm", "sam", "skdm", "usdm"], "logo": "https://cdn.wheel-size.com/automobile/manufacturer/land-rover-1622197056.750649.png" }, { "slug": "landwind", "name": "Landwind", "name_en": "Landwind", "regions": ["chdm"], "logo": "https://cdn.wheel-size.com/automobile/manufacturer/landwind-1622197068.5880659.png" }, { "slug": "ldv", "name": "LDV", "name_en": "LDV", "regions": ["audm", "eudm", "sam"], "logo": "https://cdn.wheel-size.com/automobile/manufacturer/ldv-1622197078.2540147.png" }, { "slug": "leapmotor", "name": "Leapmotor", "name_en": "Leapmotor", "regions": ["chdm"], "logo": "https://cdn.wheel-size.com/automobile/manufacturer/leapmotor-1698168765.2047434.png" }, { "slug": "levc", "name": "LEVC", "name_en": "LEVC", "regions": ["eudm"], "logo": "https://cdn.wheel-size.com/automobile/manufacturer/levc-1622197086.4354534.png" }, { "slug": "lexus", "name": "Lexus", "name_en": "Lexus", "regions": ["audm", "cdm", "chdm", "eudm", "jdm", "ladm", "medm", "mxndm", "nadm", "russia", "sadm", "sam", "skdm", "usdm"], "logo": "https://cdn.wheel-size.com/automobile/manufacturer/lexus-1622197096.94669.png" }, { "slug": "li", "name": "Li", "name_en": "Li", "regions": ["chdm"], "logo": "https://cdn.wheel-size.com/automobile/manufacturer/li-1698155466.896105.png" }, { "slug": "lifan", "name": "Lifan", "name_en": "Lifan", "regions": ["chdm", "ladm", "russia"], "logo": "https://cdn.wheel-size.com/automobile/manufacturer/lifan-1622197104.2860854.png" }, { "slug": "ligier", "name": "Ligier", "name_en": "Ligier", "regions": ["eudm"], "logo": "https://cdn.wheel-size.com/automobile/manufacturer/ligier-1663217923.7085145.png" }, { "slug": "lincoln", "name": "Lincoln", "name_en": "Lincoln", "regions": ["cdm", "chdm", "eudm", "medm", "mxndm", "usdm"], "logo": "https://cdn.wheel-size.com/automobile/manufacturer/lincoln-1622197117.5432029.png" }, { "slug": "livan", "name": "Livan", "name_en": "Livan", "regions": ["chdm", "russia"], "logo": "https://cdn.wheel-size.com/automobile/manufacturer/livan-1698155476.8045235.png" }, { "slug": "lotus", "name": "Lotus", "name_en": "Lotus", "regions": ["eudm", "medm", "russia", "usdm"], "logo": "https://cdn.wheel-size.com/automobile/manufacturer/lotus-1698156541.2480235.png" }, { "slug": "lotus-nyo", "name": "Lotus NYO", "name_en": "Lotus NYO", "regions": ["chdm"], "logo": "https://cdn.wheel-size.com/automobile/manufacturer/lotus-nyo-1698157535.4652407.png" }, { "slug": "lucid", "name": "Lucid", "name_en": "Lucid", "regions": ["cdm", "eudm", "medm", "usdm"], "logo": "https://cdn.wheel-size.com/automobile/manufacturer/lucid-1698155484.7167468.png" }, { "slug": "luxgen", "name": "Luxgen", "name_en": "Luxgen", "regions": ["medm", "russia", "sam"], "logo": "https://cdn.wheel-size.com/automobile/manufacturer/luxgen-1622277007.193432.png" }, { "slug": "lynk-and-co", "name": "Lynk&Co", "name_en": "Lynk&Co", "regions": ["chdm", "eudm", "russia"], "logo": "https://cdn.wheel-size.com/automobile/manufacturer/lynk-and-co-1622277032.6485832.png" }, { "slug": "mahindra", "name": "Mahindra", "name_en": "Mahindra", "regions": ["audm", "cdm", "eudm", "ladm", "medm", "sadm", "sam", "usdm"], "logo": "https://cdn.wheel-size.com/automobile/manufacturer/mahindra-1622277055.063834.png" }, { "slug": "man", "name": "MAN", "name_en": "MAN", "regions": ["eudm", "russia", "sadm"], "logo": "https://cdn.wheel-size.com/automobile/manufacturer/man-1622279537.136103.png" }, { "slug": "maruti", "name": "Maruti", "name_en": "Maruti", "regions": ["sam"], "logo": "https://cdn.wheel-size.com/automobile/manufacturer/maruti-1622277079.8916488.png" }, { "slug": "maserati", "name": "Maserati", "name_en": "Maserati", "regions": ["audm", "cdm", "chdm", "eudm", "jdm", "ladm", "medm", "mxndm", "nadm", "russia", "sadm", "sam", "skdm", "usdm"], "logo": "https://cdn.wheel-size.com/automobile/manufacturer/maserati-1622277092.2098749.png" }, { "slug": "maxus", "name": "Maxus", "name_en": "Maxus", "regions": ["chdm", "eudm", "ladm", "medm", "sadm", "sam"], "logo": "https://cdn.wheel-size.com/automobile/manufacturer/maxus-1622277109.863274.png" }, { "slug": "maybach", "name": "Maybach", "name_en": "Maybach", "regions": ["eudm", "medm", "russia"], "logo": "https://cdn.wheel-size.com/automobile/manufacturer/maybach-1622277125.8256702.png" }, { "slug": "mazda", "name": "Mazda", "name_en": "Mazda", "regions": ["audm", "cdm", "chdm", "eudm", "jdm", "ladm", "medm", "mxndm", "russia", "sadm", "sam", "usdm"], "logo": "https://cdn.wheel-size.com/automobile/manufacturer/mazda-1622277136.7289732.png" }, { "slug": "mclaren", "name": "McLaren", "name_en": "McLaren", "regions": ["audm", "cdm", "chdm", "eudm", "jdm", "ladm", "medm", "mxndm", "sadm", "sam", "usdm"], "logo": "https://cdn.wheel-size.com/automobile/manufacturer/mclaren-1622277150.9167163.png" }, { "slug": "mercedes", "name": "Mercedes-Benz", "name_en": "Mercedes-Benz", "regions": ["audm", "cdm", "chdm", "eudm", "jdm", "ladm", "medm", "mxndm", "nadm", "russia", "sadm", "sam", "skdm", "usdm"], "logo": "https://cdn.wheel-size.com/automobile/manufacturer/mercedes-1622277161.2897472.png" }, { "slug": "mercedes-maybach", "name": "Mercedes-Maybach", "name_en": "Mercedes-Maybach", "regions": ["audm", "cdm", "chdm", "eudm", "jdm", "medm", "mxndm", "nadm", "russia", "sadm", "sam", "skdm", "usdm"], "logo": "https://cdn.wheel-size.com/automobile/manufacturer/mercedes-maybach-1622277202.2358077.png" }, { "slug": "mercury", "name": "Mercury", "name_en": "Mercury", "regions": ["cdm", "medm", "mxndm", "usdm"], "logo": "https://cdn.wheel-size.com/automobile/manufacturer/mercury-1622277232.5964475.png" }, { "slug": "mg", "name": "MG", "name_en": "MG", "regions": ["audm", "chdm", "eudm", "ladm", "medm", "mxndm", "russia", "sam"], "logo": "https://cdn.wheel-size.com/automobile/manufacturer/mg-1622277249.83136.png" }, { "slug": "microcar", "name": "Microcar", "name_en": "Microcar", "regions": ["eudm"], "logo": "https://cdn.wheel-size.com/automobile/manufacturer/microcar-1663214640.6414146.png" }, { "slug": "mini", "name": "MINI", "name_en": "MINI", "regions": ["audm", "cdm", "chdm", "eudm", "jdm", "ladm", "medm", "mxndm", "nadm", "russia", "sadm", "sam", "skdm", "usdm"], "logo": "https://cdn.wheel-size.com/automobile/manufacturer/mini-1632743189.200076.png" }, { "slug": "mitsubishi", "name": "Mitsubishi", "name_en": "Mitsubishi", "regions": ["audm", "cdm", "chdm", "eudm", "jdm", "ladm", "medm", "mxndm", "nadm", "russia", "sadm", "sam", "skdm", "usdm"], "logo": "https://cdn.wheel-size.com/automobile/manufacturer/mitsubishi-1622277272.6303375.png" }, { "slug": "moskvich", "name": "Moskvich", "name_en": "Moskvich", "regions": ["russia"], "logo": "https://cdn.wheel-size.com/automobile/manufacturer/moskvich-1698155492.427018.png" }, { "slug": "mosler", "name": "Mosler", "name_en": "Mosler", "regions": ["usdm"], "logo": "https://cdn.wheel-size.com/automobile/manufacturer/mosler-1622277331.7054718.png" }, { "slug": "nio", "name": "Nio", "name_en": "Nio", "regions": ["chdm", "eudm"], "logo": "https://cdn.wheel-size.com/automobile/manufacturer/nio-1622277343.0326161.png" }, { "slug": "nissan", "name": "Nissan", "name_en": "Nissan", "regions": ["audm", "cdm", "chdm", "eudm", "jdm", "ladm", "medm", "mxndm", "nadm", "russia", "sadm", "sam", "usdm"], "logo": "https://cdn.wheel-size.com/automobile/manufacturer/nissan-1632742769.6952765.png" }, { "slug": "oldsmobile", "name": "Oldsmobile", "name_en": "Oldsmobile", "regions": ["usdm"], "logo": "https://cdn.wheel-size.com/automobile/manufacturer/oldsmobile-1622277714.8636441.png" }, { "slug": "omoda", "name": "Omoda", "name_en": "Omoda", "regions": ["eudm", "russia", "sadm"], "logo": "https://cdn.wheel-size.com/automobile/manufacturer/omoda-1698155500.8203485.png" }, { "slug": "opel", "name": "Opel", "name_en": "Opel", "regions": ["eudm", "jdm", "medm", "russia", "sadm", "usdm"], "logo": "https://cdn.wheel-size.com/automobile/manufacturer/opel-1622277370.747172.png" }, { "slug": "ora", "name": "Ora", "name_en": "Ora", "regions": ["chdm", "eudm", "ladm", "medm", "russia", "sam"], "logo": "https://cdn.wheel-size.com/automobile/manufacturer/ora-1663181942.2019138.png" }, { "slug": "panoz", "name": "Panoz", "name_en": "Panoz", "regions": ["usdm"], "logo": "https://cdn.wheel-size.com/automobile/manufacturer/panoz-1622277382.964593.png" }, { "slug": "perodua", "name": "Perodua", "name_en": "Perodua", "regions": ["sam"], "logo": "https://cdn.wheel-size.com/automobile/manufacturer/perodua-1622277393.5962708.png" }, { "slug": "peugeot", "name": "Peugeot", "name_en": "Peugeot", "regions": ["audm", "chdm", "eudm", "jdm", "ladm", "medm", "mxndm", "nadm", "russia", "sadm", "sam", "skdm"], "logo": "https://cdn.wheel-size.com/automobile/manufacturer/peugeot-1622277408.5159574.png" }, { "slug": "plymouth", "name": "Plymouth", "name_en": "Plymouth", "regions": ["usdm"], "logo": "https://cdn.wheel-size.com/automobile/manufacturer/plymouth-1622277419.295852.png" }, { "slug": "polaris", "name": "Polaris", "name_en": "Polaris", "regions": ["cdm", "usdm"], "logo": "https://cdn.wheel-size.com/automobile/manufacturer/polaris-1622277432.5149715.png" }, { "slug": "polestar", "name": "Polestar", "name_en": "Polestar", "regions": ["audm", "cdm", "chdm", "eudm", "medm", "sam", "skdm", "usdm"], "logo": "https://cdn.wheel-size.com/automobile/manufacturer/polestar-1622279754.559016.png" }, { "slug": "pontiac", "name": "Pontiac", "name_en": "Pontiac", "regions": ["cdm", "eudm", "mxndm", "usdm"], "logo": "https://cdn.wheel-size.com/automobile/manufacturer/pontiac-1622277464.5849144.png" }, { "slug": "porsche", "name": "Porsche", "name_en": "Porsche", "regions": ["audm", "cdm", "chdm", "eudm", "jdm", "ladm", "medm", "mxndm", "nadm", "russia", "sadm", "sam", "skdm", "usdm"], "logo": "https://cdn.wheel-size.com/automobile/manufacturer/porsche-1622277491.5094388.png" }, { "slug": "proton", "name": "Proton", "name_en": "Proton", "regions": ["audm", "eudm", "ladm", "medm", "nadm", "sadm", "sam"], "logo": "https://cdn.wheel-size.com/automobile/manufacturer/proton-1622277503.619904.png" }, { "slug": "qiantu", "name": "Qiantu", "name_en": "Qiantu", "regions": ["chdm"], "logo": "https://cdn.wheel-size.com/automobile/manufacturer/qiantu-1622277517.9015796.png" }, { "slug": "qoros", "name": "Qoros", "name_en": "Qoros", "regions": ["chdm"], "logo": "https://cdn.wheel-size.com/automobile/manufacturer/qoros-1622277530.0248766.png" }, { "slug": "radar", "name": "Radar", "name_en": "Radar", "regions": ["chdm"], "logo": "https://cdn.wheel-size.com/automobile/manufacturer/radar-1698155559.372226.png" }, { "slug": "ram", "name": "Ram", "name_en": "Ram", "regions": ["audm", "cdm", "ladm", "medm", "mxndm", "sam", "usdm"], "logo": "https://cdn.wheel-size.com/automobile/manufacturer/ram-1622277547.281054.png" }, { "slug": "ravon", "name": "Ravon", "name_en": "Ravon", "regions": ["russia"], "logo": "https://cdn.wheel-size.com/automobile/manufacturer/ravon-1622277570.2890174.png" }, { "slug": "rely", "name": "Rely", "name_en": "Rely", "regions": ["chdm"], "logo": "https://cdn.wheel-size.com/automobile/manufacturer/rely-1622277597.8827631.png" }, { "slug": "renault", "name": "Renault", "name_en": "Renault", "regions": ["audm", "chdm", "eudm", "jdm", "ladm", "medm", "mxndm", "nadm", "russia", "sadm", "sam", "skdm"], "logo": "https://cdn.wheel-size.com/automobile/manufacturer/renault-1632742415.1332035.png" }, { "slug": "renault-korea", "name": "Renault Korea", "name_en": "Renault Korea", "regions": ["skdm"], "logo": "https://cdn.wheel-size.com/automobile/manufacturer/renault-korea-1698168382.7834005.png" }, { "slug": "renault-samsung", "name": "Renault Samsung", "name_en": "Renault Samsung", "regions": ["skdm"], "logo": "https://cdn.wheel-size.com/automobile/manufacturer/renault-samsung-1622277623.14447.png" }, { "slug": "riich", "name": "Riich", "name_en": "Riich", "regions": ["chdm"], "logo": "https://cdn.wheel-size.com/automobile/manufacturer/riich-1622277634.3943207.png" }, { "slug": "rising", "name": "Rising", "name_en": "Rising", "regions": ["chdm"], "logo": "https://cdn.wheel-size.com/automobile/manufacturer/rising-1698155567.5750928.png" }, { "slug": "rivian", "name": "Rivian", "name_en": "Rivian", "regions": ["cdm", "usdm"], "logo": "https://cdn.wheel-size.com/automobile/manufacturer/rivian-1663214265.7177234.png" }, { "slug": "roewe", "name": "Roewe", "name_en": "Roewe", "regions": ["chdm"], "logo": "https://cdn.wheel-size.com/automobile/manufacturer/roewe-1622277648.5932477.png" }, { "slug": "rolls-royce", "name": "Rolls-Royce", "name_en": "Rolls-Royce", "regions": ["cdm", "eudm", "medm", "russia", "usdm"], "logo": "https://cdn.wheel-size.com/automobile/manufacturer/rolls-royce-1622277659.989281.png" }, { "slug": "rover", "name": "Rover", "name_en": "Rover", "regions": ["eudm"], "logo": "https://cdn.wheel-size.com/automobile/manufacturer/rover-1622277727.714641.png" }, { "slug": "saab", "name": "Saab", "name_en": "Saab", "regions": ["cdm", "eudm", "medm", "mxndm", "russia", "usdm"], "logo": "https://cdn.wheel-size.com/automobile/manufacturer/saab-1622277737.168092.png" }, { "slug": "saturn", "name": "Saturn", "name_en": "Saturn", "regions": ["usdm"], "logo": "https://cdn.wheel-size.com/automobile/manufacturer/saturn-1622277755.1455593.png" }, { "slug": "scion", "name": "Scion", "name_en": "Scion", "regions": ["cdm", "usdm"], "logo": "https://cdn.wheel-size.com/automobile/manufacturer/scion-1622277766.9421587.png" }, { "slug": "seat", "name": "Seat", "name_en": "Seat", "regions": ["audm", "eudm", "ladm", "medm", "mxndm", "nadm", "russia", "sam"], "logo": "https://cdn.wheel-size.com/automobile/manufacturer/seat-1622277776.311287.png" }, { "slug": "sehol", "name": "Sehol", "name_en": "Sehol", "regions": ["chdm"], "logo": "https://cdn.wheel-size.com/automobile/manufacturer/sehol-1663214247.988547.png" }, { "slug": "seres", "name": "Seres", "name_en": "Seres", "regions": ["chdm", "eudm", "medm", "usdm"], "logo": "https://cdn.wheel-size.com/automobile/manufacturer/seres-1622280005.3238325.png" }, { "slug": "skoda", "name": "Skoda", "name_en": "Skoda", "regions": ["audm", "chdm", "eudm", "ladm", "medm", "nadm", "russia", "sam"], "logo": "https://cdn.wheel-size.com/automobile/manufacturer/skoda-1622277801.922566.png" }, { "slug": "skywell", "name": "Skywell", "name_en": "Skywell", "regions": ["chdm", "eudm", "russia"], "logo": null }, { "slug": "skyworth", "name": "Skyworth", "name_en": "Skyworth", "regions": ["chdm"], "logo": null }, { "slug": "smart", "name": "Smart", "name_en": "Smart", "regions": ["audm", "cdm", "chdm", "eudm", "jdm", "ladm", "mxndm", "russia", "sam", "usdm"], "logo": "https://cdn.wheel-size.com/automobile/manufacturer/smart-1622277810.8477619.png" }, { "slug": "soueast", "name": "Soueast", "name_en": "Soueast", "regions": ["chdm", "medm", "sam"], "logo": "https://cdn.wheel-size.com/automobile/manufacturer/soueast-1622277827.6586995.png" }, { "slug": "ssangyong", "name": "SsangYong", "name_en": "SsangYong", "regions": ["audm", "chdm", "eudm", "ladm", "medm", "nadm", "russia", "sam", "skdm"], "logo": "https://cdn.wheel-size.com/automobile/manufacturer/ssangyong-1622277892.3065999.png" }, { "slug": "subaru", "name": "Subaru", "name_en": "Subaru", "regions": ["audm", "cdm", "chdm", "eudm", "jdm", "ladm", "medm", "mxndm", "nadm", "russia", "sadm", "sam", "usdm"], "logo": "https://cdn.wheel-size.com/automobile/manufacturer/subaru-1622277902.5535758.png" }, { "slug": "sunra", "name": "Sunra", "name_en": "Sunra", "regions": ["chdm"], "logo": "https://cdn.wheel-size.com/automobile/manufacturer/sunra-1663158188.8785362.png" }, { "slug": "suzuki", "name": "Suzuki", "name_en": "Suzuki", "regions": ["audm", "cdm", "chdm", "eudm", "jdm", "ladm", "medm", "mxndm", "nadm", "russia", "sadm", "sam", "usdm"], "logo": "https://cdn.wheel-size.com/automobile/manufacturer/suzuki-1622277914.6690109.png" }, { "slug": "tagaz", "name": "TagAZ", "name_en": "TagAZ", "regions": ["russia"], "logo": "https://cdn.wheel-size.com/automobile/manufacturer/tagaz-1622277932.469029.png" }, { "slug": "tank", "name": "Tank", "name_en": "Tank", "regions": ["chdm", "russia"], "logo": "https://cdn.wheel-size.com/automobile/manufacturer/tank-1698157803.3300061.png" }, { "slug": "tata", "name": "Tata", "name_en": "Tata", "regions": ["eudm", "ladm", "medm", "nadm", "sadm", "sam"], "logo": "https://cdn.wheel-size.com/automobile/manufacturer/tata-1622277946.568997.png" }, { "slug": "tesla", "name": "Tesla", "name_en": "Tesla", "regions": ["audm", "cdm", "chdm", "eudm", "jdm", "medm", "mxndm", "sam", "skdm", "usdm"], "logo": "https://cdn.wheel-size.com/automobile/manufacturer/tesla-1622277957.4683545.png" }, { "slug": "togg", "name": "Togg", "name_en": "Togg", "regions": [], "logo": "https://cdn.wheel-size.com/automobile/manufacturer/togg-1704185986.720027.png" }, { "slug": "toyota", "name": "Toyota", "name_en": "Toyota", "regions": ["audm", "cdm", "chdm", "eudm", "jdm", "ladm", "medm", "mxndm", "nadm", "russia", "sadm", "sam", "skdm", "usdm"], "logo": "https://cdn.wheel-size.com/automobile/manufacturer/toyota-1632743807.0095704.png" }, { "slug": "uaz", "name": "UAZ", "name_en": "UAZ", "regions": ["eudm", "ladm", "mxndm", "russia"], "logo": "https://cdn.wheel-size.com/automobile/manufacturer/uaz-1622277989.10721.png" }, { "slug": "vauxhall", "name": "Vauxhall", "name_en": "Vauxhall", "regions": ["eudm"], "logo": "https://cdn.wheel-size.com/automobile/manufacturer/vauxhall-1622278002.1818166.png" }, { "slug": "vaz", "name": "VAZ", "name_en": "VAZ", "regions": ["russia"], "logo": "https://cdn.wheel-size.com/automobile/manufacturer/vaz-1622278016.8254654.png" }, { "slug": "venucia", "name": "Venucia", "name_en": "Venucia", "regions": ["chdm"], "logo": "https://cdn.wheel-size.com/automobile/manufacturer/venucia-1622278028.6416075.png" }, { "slug": "vgv", "name": "VGV", "name_en": "VGV", "regions": ["chdm"], "logo": "https://cdn.wheel-size.com/automobile/manufacturer/vgv-1698167751.161964.png" }, { "slug": "victory", "name": "Victory", "name_en": "Victory", "regions": ["chdm"], "logo": "https://cdn.wheel-size.com/automobile/manufacturer/victory-1622278036.9768527.png" }, { "slug": "vinfast", "name": "VinFast", "name_en": "VinFast", "regions": ["cdm", "eudm", "sam", "usdm"], "logo": "https://cdn.wheel-size.com/automobile/manufacturer/vinfast-1663238109.8142383.png" }, { "slug": "volkswagen", "name": "Volkswagen", "name_en": "Volkswagen", "regions": ["audm", "cdm", "chdm", "eudm", "jdm", "ladm", "medm", "mxndm", "russia", "sadm", "sam", "usdm"], "logo": "https://cdn.wheel-size.com/automobile/manufacturer/volkswagen-1632743087.163763.png" }, { "slug": "volvo", "name": "Volvo", "name_en": "Volvo", "regions": ["audm", "cdm", "chdm", "eudm", "jdm", "ladm", "medm", "mxndm", "nadm", "russia", "sadm", "sam", "skdm", "usdm"], "logo": "https://cdn.wheel-size.com/automobile/manufacturer/volvo-1622278060.3758042.png" }, { "slug": "vortex", "name": "Vortex", "name_en": "Vortex", "regions": ["russia"], "logo": "https://cdn.wheel-size.com/automobile/manufacturer/vortex-1622278071.8603282.png" }, { "slug": "voyah", "name": "Voyah", "name_en": "Voyah", "regions": ["chdm", "eudm", "medm", "russia"], "logo": "https://cdn.wheel-size.com/automobile/manufacturer/voyah-1698155587.6570084.png" }, { "slug": "weiwang", "name": "Weiwang", "name_en": "Weiwang", "regions": ["chdm"], "logo": "https://cdn.wheel-size.com/automobile/manufacturer/weiwang-1622278093.8744166.png" }, { "slug": "weltmeister", "name": "Weltmeister", "name_en": "Weltmeister", "regions": ["chdm"], "logo": "https://cdn.wheel-size.com/automobile/manufacturer/weltmeister-1663158781.207936.png" }, { "slug": "wey", "name": "Wey", "name_en": "Wey", "regions": ["chdm", "eudm", "medm"], "logo": "https://cdn.wheel-size.com/automobile/manufacturer/wey-1622278100.6660583.png" }, { "slug": "wuling", "name": "Wuling", "name_en": "Wuling", "regions": ["chdm", "sam"], "logo": "https://cdn.wheel-size.com/automobile/manufacturer/wuling-1622278110.1500247.png" }, { "slug": "xpeng", "name": "XPeng", "name_en": "XPeng", "regions": ["chdm", "eudm"], "logo": "https://cdn.wheel-size.com/automobile/manufacturer/xpeng-1622278118.5107365.png" }, { "slug": "yema", "name": "Yema", "name_en": "Yema", "regions": ["chdm"], "logo": "https://cdn.wheel-size.com/automobile/manufacturer/yema-1622278126.5089145.png" }, { "slug": "zaz", "name": "ZAZ", "name_en": "ZAZ", "regions": ["russia"], "logo": "https://cdn.wheel-size.com/automobile/manufacturer/zaz-1622278134.4558012.png" }, { "slug": "zedriv", "name": "Zedriv", "name_en": "Zedriv", "regions": ["chdm"], "logo": "https://cdn.wheel-size.com/automobile/manufacturer/zedriv-1622278143.3402014.png" }, { "slug": "zeekr", "name": "Zeekr", "name_en": "Zeekr", "regions": ["chdm", "eudm", "russia"], "logo": "https://cdn.wheel-size.com/automobile/manufacturer/zeekr-1663156129.567872.png" }, { "slug": "zotye", "name": "Zotye", "name_en": "Zotye", "regions": ["chdm", "medm", "nadm", "russia"], "logo": "https://cdn.wheel-size.com/automobile/manufacturer/zotye-1622278154.9476206.png" }, { "slug": "zotye-jiangnan", "name": "Zotye Jiangnan", "name_en": "Zotye Jiangnan", "regions": ["chdm"], "logo": "https://cdn.wheel-size.com/automobile/manufacturer/zotye-jiangnan-1622278164.8247287.png" }, { "slug": "zx", "name": "ZX", "name_en": "ZX", "regions": ["chdm", "ladm", "russia"], "logo": "https://cdn.wheel-size.com/automobile/manufacturer/zx-1622278172.3496125.png" }], "meta": { "count": 220 } }


